IRIDIUM 119             
1 42959U 17061E   24294.93132605  .00000277  00000+0  91924-4 0  9998
2 42959  86.3913 277.7331 0002426  97.5087 262.6384 14.34218415368204
IRIDIUM 107             
1 42960U 17061F   24294.88058705  .00000385  00000+0  13035-3 0  9998
2 42960  86.3912 277.7719 0002537  95.5258 264.6227 14.34220293368201
IRIDIUM 132             
1 42961U 17061G   24294.88693068  .00000489  00000+0  16767-3 0  9996
2 42961  86.3910 277.7531 0002651  92.2954 267.8546 14.34219919368208
IRIDIUM 136             
1 42962U 17061H   24294.50003116  .00000302  00000+0  10083-3 0  9994
2 42962  86.3916 277.9186 0002239  93.6949 266.4503 14.34217374368160
IRIDIUM 139             
1 42963U 17061J   24294.92498560 -.00000013  00000+0 -11574-4 0  9990
2 42963  86.3914 277.7933 0002478  93.4574 266.6905 14.34217509368230
IRIDIUM 125             
1 42964U 17061K   24294.91229990  .00000423  00000+0  14411-3 0  9994
2 42964  86.3914 277.8486 0002393 102.9866 257.1597 14.34220039368246
IRIDIUM 135             
1 43070U 17083A   24294.81665560  .00000844  00000+0  29415-3 0  9990
2 43070  86.4015 214.5571 0002241  70.3463 289.7975 14.34217931357521
IRIDIUM 138             
1 43071U 17083B   24294.84201560  .00001122  00000+0  39363-3 0  9993
2 43071  86.4008 214.2480 0001733  95.6076 264.5318 14.34228404357513
